[{"OBJECT_NAME":"STARLINK-31973","OBJECT_ID":"2024-106X","EPOCH":"2026-03-09T02:55:42.343104","MEAN_MOTION":15.27567779,"ECCENTRICITY":6.024e-5,"INCLINATION":43.0021,"RA_OF_ASC_NODE":335.9351,"ARG_OF_PERICENTER":246.2423,"MEAN_ANOMALY":113.8366,"EPHEMERIS_TYPE":0,"CLASSIFICATION_TYPE":"U","NORAD_CAT_ID":59943,"ELEMENT_SET_NO":999,"REV_AT_EPOCH":10043,"BSTAR":-3.5143524e-5,"MEAN_MOTION_DOT":-1.228e-5,"MEAN_MOTION_DDOT":0},{"OBJECT_NAME":"FLOCK 4G-25","OBJECT_ID":"2025-009AP","EPOCH":"2026-03-09T17:53:50.680608","MEAN_MOTION":15.27424196,"ECCENTRICITY":8.276e-5,"INCLINATION":97.4049,"RA_OF_ASC_NODE":151.4141,"ARG_OF_PERICENTER":316.3151,"MEAN_ANOMALY":43.8023,"EPHEMERIS_TYPE":0,"CLASSIFICATION_TYPE":"U","NORAD_CAT_ID":62646,"ELEMENT_SET_NO":999,"REV_AT_EPOCH":6373,"BSTAR":0.00038902475,"MEAN_MOTION_DOT":0.00010373,"MEAN_MOTION_DDOT":0}]
